{"type": "FeatureCollection", "features": [{"type": "Feature", "properties": {"norad_id": 26766, "name": "INTELSAT 10 (IS-10)", "group": "intelsat", "lat": -1.1637053620748357, "lon": 53.37272725648183, "alt_km": 36146.71288328989, "timestamp": "2025-12-06T11:28:10.696632+00:00", "meta": {"OBJECT_NAME": "INTELSAT 10 (IS-10)", "OBJECT_ID": "2001-019A", "EPOCH": "2025-12-05T12:47:33.691776", "MEAN_MOTION": 0.99078635, "ECCENTRICITY": 0.00078343, "INCLINATION": 8.6118, "RA_OF_ASC_NODE": 61.2275, "ARG_OF_PERICENTER": 219.6027, "MEAN_ANOMALY": 155.367, "EPHEMERIS_TYPE": 0, "CLASSIFICATION_TYPE": "U", "NORAD_CAT_ID": 26766, "ELEMENT_SET_NO": 999, "REV_AT_EPOCH": 4366, "BSTAR": 0, "MEAN_MOTION_DOT": -2.14e-06, "MEAN_MOTION_DDOT": 0}, "tle": {"line1": "1 26766U 01019A   25339.53302884 -.00000214  00000+0  00000+0 0  9999", "line2": "2 26766   8.6118  61.2275 0007834 219.6027 155.3670  0.99078635 43668"}}, "geometry": {"type": "Point", "coordinates": [53.37272725648183, -1.1637053620748357]}}, {"type": "Feature", "properties": {"norad_id": 26900, "name": "INTELSAT 902 (IS-902)", "group": "intelsat", "lat": 4.694491674291448, "lon": -162.50539271559532, "alt_km": 35775.17651227336, "timestamp": "2025-12-06T11:28:10.696655+00:00", "meta": {"OBJECT_NAME": "INTELSAT 902 (IS-902)", "OBJECT_ID": "2001-039A", "EPOCH": "2025-12-01T16:59:59.311968", "MEAN_MOTION": 1.00270327, "ECCENTRICITY": 0.00043097, "INCLINATION": 5.6187, "RA_OF_ASC_NODE": 74.2002, "ARG_OF_PERICENTER": 175.119, "MEAN_ANOMALY": 26.3816, "EPHEMERIS_TYPE": 0, "CLASSIFICATION_TYPE": "U", "NORAD_CAT_ID": 26900, "ELEMENT_SET_NO": 999, "REV_AT_EPOCH": 8871, "BSTAR": 0, "MEAN_MOTION_DOT": -2.63e-06, "MEAN_MOTION_DDOT": 0}, "tle": {"line1": "1 26900U 01039A   25335.70832537 -.00000263  00000+0  00000+0 0  9993", "line2": "2 26900   5.6187  74.2002 0004309 175.1190  26.3816  1.00270327 88713"}}, "geometry": {"type": "Point", "coordinates": [-162.50539271559532, 4.694491674291448]}}, {"type": "Feature", "properties": {"norad_id": 27380, "name": "INTELSAT 904 (IS-904)", "group": "intelsat", "lat": 3.7129095557179412, "lon": -143.80489014739138, "alt_km": 35783.19258267544, "timestamp": "2025-12-06T11:28:10.696671+00:00", "meta": {"OBJECT_NAME": "INTELSAT 904 (IS-904)", "OBJECT_ID": "2002-007A", "EPOCH": "2025-12-05T15:15:34.511904", "MEAN_MOTION": 1.00268861, "ECCENTRICITY": 0.00017057, "INCLINATION": 6.4364, "RA_OF_ASC_NODE": 71.5131, "ARG_OF_PERICENTER": 207.4869, "MEAN_ANOMALY": 353.0709, "EPHEMERIS_TYPE": 0, "CLASSIFICATION_TYPE": "U", "NORAD_CAT_ID": 27380, "ELEMENT_SET_NO": 999, "REV_AT_EPOCH": 4982, "BSTAR": 0, "MEAN_MOTION_DOT": -2.19e-06, "MEAN_MOTION_DDOT": 0}, "tle": {"line1": "1 27380U 02007A   25339.63581611 -.00000219  00000+0  00000+0 0  9993", "line2": "2 27380   6.4364  71.5131 0001705 207.4869 353.0709  1.00268861 49824"}}, "geometry": {"type": "Point", "coordinates": [-143.80489014739138, 3.7129095557179412]}}, {"type": "Feature", "properties": {"norad_id": 27426, "name": "DIRECTV 5 (TEMPO 1)", "group": "intelsat", "lat": 3.795969303963501, "lon": 137.3287160678113, "alt_km": 35797.17468946267, "timestamp": "2025-12-06T11:28:10.696685+00:00", "meta": {"OBJECT_NAME": "DIRECTV 5 (TEMPO 1)", "OBJECT_ID": "2002-023A", "EPOCH": "2025-12-05T21:43:55.587936", "MEAN_MOTION": 1.00271421, "ECCENTRICITY": 0.00038913, "INCLINATION": 4.3838, "RA_OF_ASC_NODE": 77.7321, "ARG_OF_PERICENTER": 194.0333, "MEAN_ANOMALY": 19.0475, "EPHEMERIS_TYPE": 0, "CLASSIFICATION_TYPE": "U", "NORAD_CAT_ID": 27426, "ELEMENT_SET_NO": 999, "REV_AT_EPOCH": 8618, "BSTAR": 0, "MEAN_MOTION_DOT": -5e-07, "MEAN_MOTION_DDOT": 0}, "tle": {"line1": "1 27426U 02023A   25339.90550449 -.00000050  00000+0  00000+0 0  9990", "line2": "2 27426   4.3838  77.7321 0003891 194.0333  19.0475  1.00271421 86187"}}, "geometry": {"type": "Point", "coordinates": [137.3287160678113, 3.795969303963501]}}, {"type": "Feature", "properties": {"norad_id": 27438, "name": "INTELSAT 905 (IS-905)", "group": "intelsat", "lat": 3.8979128873177804, "lon": 110.2138974725143, "alt_km": 35796.4326958023, "timestamp": "2025-12-06T11:28:10.696698+00:00", "meta": {"OBJECT_NAME": "INTELSAT 905 (IS-905)", "OBJECT_ID": "2002-027A", "EPOCH": "2025-12-03T09:40:44.149728", "MEAN_MOTION": 1.00273288, "ECCENTRICITY": 0.00031296, "INCLINATION": 6.2606, "RA_OF_ASC_NODE": 72.1621, "ARG_OF_PERICENTER": 189.1417, "MEAN_ANOMALY": 179.1858, "EPHEMERIS_TYPE": 0, "CLASSIFICATION_TYPE": "U", "NORAD_CAT_ID": 27438, "ELEMENT_SET_NO": 999, "REV_AT_EPOCH": 4940, "BSTAR": 0, "MEAN_MOTION_DOT": 1.09e-06, "MEAN_MOTION_DDOT": 0}, "tle": {"line1": "1 27438U 02027A   25337.40328877  .00000109  00000+0  00000+0 0  9992", "line2": "2 27438   6.2606  72.1621 0003129 189.1417 179.1858  1.00273288 49408"}}, "geometry": {"type": "Point", "coordinates": [110.2138974725143, 3.8979128873177804]}}, {"type": "Feature", "properties": {"norad_id": 27445, "name": "GALAXY 3C (G-3C)", "group": "intelsat", "lat": 3.0946863755699012, "lon": 152.65923299267504, "alt_km": 35781.48683756558, "timestamp": "2025-12-06T11:28:10.696711+00:00", "meta": {"OBJECT_NAME": "GALAXY 3C (G-3C)", "OBJECT_ID": "2002-030A", "EPOCH": "2025-12-05T21:48:17.669376", "MEAN_MOTION": 1.00270565, "ECCENTRICITY": 0.00012513, "INCLINATION": 3.2464, "RA_OF_ASC_NODE": 80.5743, "ARG_OF_PERICENTER": 101.7062, "MEAN_ANOMALY": 124.8895, "EPHEMERIS_TYPE": 0, "CLASSIFICATION_TYPE": "U", "NORAD_CAT_ID": 27445, "ELEMENT_SET_NO": 999, "REV_AT_EPOCH": 4455, "BSTAR": 0, "MEAN_MOTION_DOT": -1.45e-06, "MEAN_MOTION_DDOT": 0}, "tle": {"line1": "1 27445U 02030A   25339.90853784 -.00000145  00000+0  00000+0 0  9992", "line2": "2 27445   3.2464  80.5743 0001251 101.7062 124.8895  1.00270565 44557"}}, "geometry": {"type": "Point", "coordinates": [152.65923299267504, 3.0946863755699012]}}, {"type": "Feature", "properties": {"norad_id": 27513, "name": "INTELSAT 906 (IS-906)", "group": "intelsat", "lat": -4.4402202274379015, "lon": -48.362008239061545, "alt_km": 35770.29152280062, "timestamp": "2025-12-06T11:28:10.696739+00:00", "meta": {"OBJECT_NAME": "INTELSAT 906 (IS-906)", "OBJECT_ID": "2002-041A", "EPOCH": "2025-12-05T20:25:38.610912", "MEAN_MOTION": 1.00270266, "ECCENTRICITY": 0.00060537, "INCLINATION": 5.3114, "RA_OF_ASC_NODE": 75.3137, "ARG_OF_PERICENTER": 187.2816, "MEAN_ANOMALY": 182.8578, "EPHEMERIS_TYPE": 0, "CLASSIFICATION_TYPE": "U", "NORAD_CAT_ID": 27513, "ELEMENT_SET_NO": 999, "REV_AT_EPOCH": 8509, "BSTAR": 0, "MEAN_MOTION_DOT": 2e-07, "MEAN_MOTION_DDOT": 0}, "tle": {"line1": "1 27513U 02041A   25339.85114133  .00000020  00000+0  00000+0 0  9993", "line2": "2 27513   5.3114  75.3137 0006053 187.2816 182.8578  1.00270266 85092"}}, "geometry": {"type": "Point", "coordinates": [-48.362008239061545, -4.4402202274379015]}}, {"type": "Feature", "properties": {"norad_id": 27954, "name": "GALAXY 13 (HORIZONS-1)", "group": "intelsat", "lat": 0.19809611441088903, "lon": 97.55792845976116, "alt_km": 35793.30065059724, "timestamp": "2025-12-06T11:28:10.696753+00:00", "meta": {"OBJECT_NAME": "GALAXY 13 (HORIZONS-1)", "OBJECT_ID": "2003-044A", "EPOCH": "2025-12-05T18:07:18.060096", "MEAN_MOTION": 1.00273566, "ECCENTRICITY": 0.00020545, "INCLINATION": 0.9175, "RA_OF_ASC_NODE": 86.5611, "ARG_OF_PERICENTER": 165.0331, "MEAN_ANOMALY": 305.0494, "EPHEMERIS_TYPE": 0, "CLASSIFICATION_TYPE": "U", "NORAD_CAT_ID": 27954, "ELEMENT_SET_NO": 999, "REV_AT_EPOCH": 4463, "BSTAR": 0, "MEAN_MOTION_DOT": 1.42e-06, "MEAN_MOTION_DDOT": 0}, "tle": {"line1": "1 27954U 03044A   25339.75507014  .00000142  00000+0  00000+0 0  9994", "line2": "2 27954   0.9175  86.5611 0002054 165.0331 305.0494  1.00273566 44630"}}, "geometry": {"type": "Point", "coordinates": [97.55792845976116, 0.19809611441088903]}}, {"type": "Feature", "properties": {"norad_id": 28358, "name": "INTELSAT 10-02", "group": "intelsat", "lat": -0.018529069886410596, "lon": -113.45118561242366, "alt_km": 35782.904019885, "timestamp": "2025-12-06T11:28:10.696765+00:00", "meta": {"OBJECT_NAME": "INTELSAT 10-02", "OBJECT_ID": "2004-022A", "EPOCH": "2025-12-05T22:15:07.597728", "MEAN_MOTION": 1.00269317, "ECCENTRICITY": 0.00011875, "INCLINATION": 0.0378, "RA_OF_ASC_NODE": 75.0175, "ARG_OF_PERICENTER": 211.6401, "MEAN_ANOMALY": 121.1109, "EPHEMERIS_TYPE": 0, "CLASSIFICATION_TYPE": "U", "NORAD_CAT_ID": 28358, "ELEMENT_SET_NO": 999, "REV_AT_EPOCH": 7861, "BSTAR": 0, "MEAN_MOTION_DOT": -2e-08, "MEAN_MOTION_DDOT": 0}, "tle": {"line1": "1 28358U 04022A   25339.92717127 -.00000002  00000+0  00000+0 0  9993", "line2": "2 28358   0.0378  75.0175 0001187 211.6401 121.1109  1.00269317 78619"}}, "geometry": {"type": "Point", "coordinates": [-113.45118561242366, -0.018529069886410596]}}, {"type": "Feature", "properties": {"norad_id": 28626, "name": "XM-3 (RHYTHM)", "group": "intelsat", "lat": -0.09509927799003573, "lon": 31.59216457931153, "alt_km": 36156.509733129176, "timestamp": "2025-12-06T11:28:10.696777+00:00", "meta": {"OBJECT_NAME": "XM-3 (RHYTHM)", "OBJECT_ID": "2005-008A", "EPOCH": "2025-12-05T21:14:36.662784", "MEAN_MOTION": 0.9895468, "ECCENTRICITY": 0.0001111, "INCLINATION": 0.1562, "RA_OF_ASC_NODE": 81.0036, "ARG_OF_PERICENTER": 259.6806, "MEAN_ANOMALY": 199.7449, "EPHEMERIS_TYPE": 0, "CLASSIFICATION_TYPE": "U", "NORAD_CAT_ID": 28626, "ELEMENT_SET_NO": 999, "REV_AT_EPOCH": 4068, "BSTAR": 0, "MEAN_MOTION_DOT": -2.66e-06, "MEAN_MOTION_DDOT": 0}, "tle": {"line1": "1 28626U 05008A   25339.88514656 -.00000266  00000+0  00000+0 0  9995", "line2": "2 28626   0.1562  81.0036 0001111 259.6806 199.7449  0.98954680 40688"}}, "geometry": {"type": "Point", "coordinates": [31.59216457931153, -0.09509927799003573]}}]}